[{"OBJECT_NAME":"STARLINK-5741","OBJECT_ID":"2023-020P","EPOCH":"2026-03-08T05:01:06.379968","MEAN_MOTION":15.02536384,"ECCENTRICITY":0.00013508,"INCLINATION":43.0063,"RA_OF_ASC_NODE":359.9666,"ARG_OF_PERICENTER":260.7188,"MEAN_ANOMALY":99.3502,"EPHEMERIS_TYPE":0,"CLASSIFICATION_TYPE":"U","NORAD_CAT_ID":55582,"ELEMENT_SET_NO":999,"REV_AT_EPOCH":16884,"BSTAR":3.1944319e-5,"MEAN_MOTION_DOT":2.28e-6,"MEAN_MOTION_DDOT":0},{"OBJECT_NAME":"OBJECT E","OBJECT_ID":"2025-292E","EPOCH":"2026-03-09T23:06:13.350528","MEAN_MOTION":15.05603019,"ECCENTRICITY":0.00142209,"INCLINATION":97.6388,"RA_OF_ASC_NODE":145.6972,"ARG_OF_PERICENTER":344.4497,"MEAN_ANOMALY":15.6291,"EPHEMERIS_TYPE":0,"CLASSIFICATION_TYPE":"U","NORAD_CAT_ID":66997,"ELEMENT_SET_NO":999,"REV_AT_EPOCH":1350,"BSTAR":0.00040225725,"MEAN_MOTION_DOT":5.752e-5,"MEAN_MOTION_DDOT":0}]
